<?xml version="1.0" encoding="UTF-8"?>
<ndm xmlns:xsi="http://www.w3.org/2001/XMLSchema-instance" xsi:noNamespaceSchemaLocation="https://sanaregistry.org/r/ndmxml_unqualified/ndmxml-2.0.0-master-2.0.xsd">
<omm id="CCSDS_OMM_VERS" version="2.0">
<header><CREATION_DATE/><ORIGINATOR/></header><body><segment><metadata><OBJECT_NAME>ORBCOMM FM33</OBJECT_NAME><OBJECT_ID>1999-065D</OBJECT_ID><CENTER_NAME>EARTH</CENTER_NAME><REF_FRAME>TEME</REF_FRAME><TIME_SYSTEM>UTC</TIME_SYSTEM><MEAN_ELEMENT_THEORY>SGP4</MEAN_ELEMENT_THEORY></metadata><data><meanElements><EPOCH>2025-01-01T14:50:37.209408</EPOCH><MEAN_MOTION>14.39171500</MEAN_MOTION><ECCENTRICITY>.0010141</ECCENTRICITY><INCLINATION>45.0286</INCLINATION><RA_OF_ASC_NODE>70.4545</RA_OF_ASC_NODE><ARG_OF_PERICENTER>293.1336</ARG_OF_PERICENTER><MEAN_ANOMALY>66.8444</MEAN_ANOMALY></meanElements><tleParameters><EPHEMERIS_TYPE>0</EPHEMERIS_TYPE><CLASSIFICATION_TYPE>U</CLASSIFICATION_TYPE><NORAD_CAT_ID>25983</NORAD_CAT_ID><ELEMENT_SET_NO>999</ELEMENT_SET_NO><REV_AT_EPOCH>31206</REV_AT_EPOCH><BSTAR>.16399E-2</BSTAR><MEAN_MOTION_DOT>.499E-4</MEAN_MOTION_DOT><MEAN_MOTION_DDOT>0</MEAN_MOTION_DDOT></tleParameters></data></segment></body></omm>
<omm id="CCSDS_OMM_VERS" version="2.0">
<header><CREATION_DATE/><ORIGINATOR/></header><body><segment><metadata><OBJECT_NAME>ORBCOMM FM36</OBJECT_NAME><OBJECT_ID>1999-065E</OBJECT_ID><CENTER_NAME>EARTH</CENTER_NAME><REF_FRAME>TEME</REF_FRAME><TIME_SYSTEM>UTC</TIME_SYSTEM><MEAN_ELEMENT_THEORY>SGP4</MEAN_ELEMENT_THEORY></metadata><data><meanElements><EPOCH>2025-01-01T20:24:20.879424</EPOCH><MEAN_MOTION>14.37311349</MEAN_MOTION><ECCENTRICITY>.0004646</ECCENTRICITY><INCLINATION>45.0372</INCLINATION><RA_OF_ASC_NODE>158.7198</RA_OF_ASC_NODE><ARG_OF_PERICENTER>187.7632</ARG_OF_PERICENTER><MEAN_ANOMALY>172.3145</MEAN_ANOMALY></meanElements><tleParameters><EPHEMERIS_TYPE>0</EPHEMERIS_TYPE><CLASSIFICATION_TYPE>U</CLASSIFICATION_TYPE><NORAD_CAT_ID>25984</NORAD_CAT_ID><ELEMENT_SET_NO>999</ELEMENT_SET_NO><REV_AT_EPOCH>31048</REV_AT_EPOCH><BSTAR>.57293E-2</BSTAR><MEAN_MOTION_DOT>.17151E-3</MEAN_MOTION_DOT><MEAN_MOTION_DDOT>0</MEAN_MOTION_DDOT></tleParameters></data></segment></body></omm>
<omm id="CCSDS_OMM_VERS" version="2.0">
<header><CREATION_DATE/><ORIGINATOR/></header><body><segment><metadata><OBJECT_NAME>ORBCOMM FM35</OBJECT_NAME><OBJECT_ID>1999-065F</OBJECT_ID><CENTER_NAME>EARTH</CENTER_NAME><REF_FRAME>TEME</REF_FRAME><TIME_SYSTEM>UTC</TIME_SYSTEM><MEAN_ELEMENT_THEORY>SGP4</MEAN_ELEMENT_THEORY></metadata><data><meanElements><EPOCH>2025-01-01T18:52:29.913312</EPOCH><MEAN_MOTION>14.36409487</MEAN_MOTION><ECCENTRICITY>.0003578</ECCENTRICITY><INCLINATION>45.0373</INCLINATION><RA_OF_ASC_NODE>162.8059</RA_OF_ASC_NODE><ARG_OF_PERICENTER>262.6629</ARG_OF_PERICENTER><MEAN_ANOMALY>97.3813</MEAN_ANOMALY></meanElements><tleParameters><EPHEMERIS_TYPE>0</EPHEMERIS_TYPE><CLASSIFICATION_TYPE>U</CLASSIFICATION_TYPE><NORAD_CAT_ID>25985</NORAD_CAT_ID><ELEMENT_SET_NO>999</ELEMENT_SET_NO><REV_AT_EPOCH>31085</REV_AT_EPOCH><BSTAR>.14374E-2</BSTAR><MEAN_MOTION_DOT>.411E-4</MEAN_MOTION_DOT><MEAN_MOTION_DDOT>0</MEAN_MOTION_DDOT></tleParameters></data></segment></body></omm>
<omm id="CCSDS_OMM_VERS" version="2.0">
<header><CREATION_DATE/><ORIGINATOR/></header><body><segment><metadata><OBJECT_NAME>ORBCOMM FM34</OBJECT_NAME><OBJECT_ID>1999-065G</OBJECT_ID><CENTER_NAME>EARTH</CENTER_NAME><REF_FRAME>TEME</REF_FRAME><TIME_SYSTEM>UTC</TIME_SYSTEM><MEAN_ELEMENT_THEORY>SGP4</MEAN_ELEMENT_THEORY></metadata><data><meanElements><EPOCH>2025-01-01T21:30:23.446944</EPOCH><MEAN_MOTION>14.36471985</MEAN_MOTION><ECCENTRICITY>.0004733</ECCENTRICITY><INCLINATION>45.0369</INCLINATION><RA_OF_ASC_NODE>162.8136</RA_OF_ASC_NODE><ARG_OF_PERICENTER>219.6519</ARG_OF_PERICENTER><MEAN_ANOMALY>140.3984</MEAN_ANOMALY></meanElements><tleParameters><EPHEMERIS_TYPE>0</EPHEMERIS_TYPE><CLASSIFICATION_TYPE>U</CLASSIFICATION_TYPE><NORAD_CAT_ID>25986</NORAD_CAT_ID><ELEMENT_SET_NO>999</ELEMENT_SET_NO><REV_AT_EPOCH>31098</REV_AT_EPOCH><BSTAR>.41872E-2</BSTAR><MEAN_MOTION_DOT>.12276E-3</MEAN_MOTION_DOT><MEAN_MOTION_DDOT>0</MEAN_MOTION_DDOT></tleParameters></data></segment></body></omm>
<omm id="CCSDS_OMM_VERS" version="2.0">
<header><CREATION_DATE/><ORIGINATOR/></header><body><segment><metadata><OBJECT_NAME>ORBCOMM FM38</OBJECT_NAME><OBJECT_ID>2008-031A</OBJECT_ID><CENTER_NAME>EARTH</CENTER_NAME><REF_FRAME>TEME</REF_FRAME><TIME_SYSTEM>UTC</TIME_SYSTEM><MEAN_ELEMENT_THEORY>SGP4</MEAN_ELEMENT_THEORY></metadata><data><meanElements><EPOCH>2025-01-01T12:57:33.098688</EPOCH><MEAN_MOTION>14.79994922</MEAN_MOTION><ECCENTRICITY>.0005465</ECCENTRICITY><INCLINATION>48.4406</INCLINATION><RA_OF_ASC_NODE>28.7156</RA_OF_ASC_NODE><ARG_OF_PERICENTER>31.9675</ARG_OF_PERICENTER><MEAN_ANOMALY>328.1571</MEAN_ANOMALY></meanElements><tleParameters><EPHEMERIS_TYPE>0</EPHEMERIS_TYPE><CLASSIFICATION_TYPE>U</CLASSIFICATION_TYPE><NORAD_CAT_ID>33060</NORAD_CAT_ID><ELEMENT_SET_NO>999</ELEMENT_SET_NO><REV_AT_EPOCH>89005</REV_AT_EPOCH><BSTAR>.10795E-2</BSTAR><MEAN_MOTION_DOT>.8053E-4</MEAN_MOTION_DOT><MEAN_MOTION_DDOT>0</MEAN_MOTION_DDOT></tleParameters></data></segment></body></omm>
<omm id="CCSDS_OMM_VERS" version="2.0">
<header><CREATION_DATE/><ORIGINATOR/></header><body><segment><metadata><OBJECT_NAME>ORBCOMM FM41</OBJECT_NAME><OBJECT_ID>2008-031B</OBJECT_ID><CENTER_NAME>EARTH</CENTER_NAME><REF_FRAME>TEME</REF_FRAME><TIME_SYSTEM>UTC</TIME_SYSTEM><MEAN_ELEMENT_THEORY>SGP4</MEAN_ELEMENT_THEORY></metadata><data><meanElements><EPOCH>2025-01-01T11:00:01.109952</EPOCH><MEAN_MOTION>14.79625616</MEAN_MOTION><ECCENTRICITY>.0004829</ECCENTRICITY><INCLINATION>48.4440</INCLINATION><RA_OF_ASC_NODE>36.3385</RA_OF_ASC_NODE><ARG_OF_PERICENTER>15.4194</ARG_OF_PERICENTER><MEAN_ANOMALY>127.4737</MEAN_ANOMALY></meanElements><tleParameters><EPHEMERIS_TYPE>0</EPHEMERIS_TYPE><CLASSIFICATION_TYPE>U</CLASSIFICATION_TYPE><NORAD_CAT_ID>33061</NORAD_CAT_ID><ELEMENT_SET_NO>999</ELEMENT_SET_NO><REV_AT_EPOCH>88953</REV_AT_EPOCH><BSTAR>.96681E-3</BSTAR><MEAN_MOTION_DOT>.7125E-4</MEAN_MOTION_DOT><MEAN_MOTION_DDOT>0</MEAN_MOTION_DDOT></tleParameters></data></segment></body></omm>
<omm id="CCSDS_OMM_VERS" version="2.0">
<header><CREATION_DATE/><ORIGINATOR/></header><body><segment><metadata><OBJECT_NAME>ORBCOMM FM29</OBJECT_NAME><OBJECT_ID>2008-031C</OBJECT_ID><CENTER_NAME>EARTH</CENTER_NAME><REF_FRAME>TEME</REF_FRAME><TIME_SYSTEM>UTC</TIME_SYSTEM><MEAN_ELEMENT_THEORY>SGP4</MEAN_ELEMENT_THEORY></metadata><data><meanElements><EPOCH>2025-01-01T10:14:08.018880</EPOCH><MEAN_MOTION>14.79662575</MEAN_MOTION><ECCENTRICITY>.0006526</ECCENTRICITY><INCLINATION>48.4391</INCLINATION><RA_OF_ASC_NODE>44.4634</RA_OF_ASC_NODE><ARG_OF_PERICENTER>16.5617</ARG_OF_PERICENTER><MEAN_ANOMALY>357.5796</MEAN_ANOMALY></meanElements><tleParameters><EPHEMERIS_TYPE>0</EPHEMERIS_TYPE><CLASSIFICATION_TYPE>U</CLASSIFICATION_TYPE><NORAD_CAT_ID>33062</NORAD_CAT_ID><ELEMENT_SET_NO>999</ELEMENT_SET_NO><REV_AT_EPOCH>88944</REV_AT_EPOCH><BSTAR>.10351E-2</BSTAR><MEAN_MOTION_DOT>.7651E-4</MEAN_MOTION_DOT><MEAN_MOTION_DDOT>0</MEAN_MOTION_DDOT></tleParameters></data></segment></body></omm>
<omm id="CCSDS_OMM_VERS" version="2.0">
<header><CREATION_DATE/><ORIGINATOR/></header><body><segment><metadata><OBJECT_NAME>ORBCOMM FM39</OBJECT_NAME><OBJECT_ID>2008-031D</OBJECT_ID><CENTER_NAME>EARTH</CENTER_NAME><REF_FRAME>TEME</REF_FRAME><TIME_SYSTEM>UTC</TIME_SYSTEM><MEAN_ELEMENT_THEORY>SGP4</MEAN_ELEMENT_THEORY></metadata><data><meanElements><EPOCH>2025-01-01T15:17:42.758016</EPOCH><MEAN_MOTION>14.78386967</MEAN_MOTION><ECCENTRICITY>.0007645</ECCENTRICITY><INCLINATION>48.4403</INCLINATION><RA_OF_ASC_NODE>65.9975</RA_OF_ASC_NODE><ARG_OF_PERICENTER>352.7235</ARG_OF_PERICENTER><MEAN_ANOMALY>7.3567</MEAN_ANOMALY></meanElements><tleParameters><EPHEMERIS_TYPE>0</EPHEMERIS_TYPE><CLASSIFICATION_TYPE>U</CLASSIFICATION_TYPE><NORAD_CAT_ID>33063</NORAD_CAT_ID><ELEMENT_SET_NO>999</ELEMENT_SET_NO><REV_AT_EPOCH>88914</REV_AT_EPOCH><BSTAR>.1001E-2</BSTAR><MEAN_MOTION_DOT>.7168E-4</MEAN_MOTION_DOT><MEAN_MOTION_DDOT>0</MEAN_MOTION_DDOT></tleParameters></data></segment></body></omm>

</ndm>
