ORBCOMM FM33            
1 25983U 99065D   25001.61848622  .00004990  00000+0  16399-2 0  9992
2 25983  45.0286  70.4545 0010141 293.1336  66.8444 14.39171500312068
ORBCOMM FM36            
1 25984U 99065E   25001.85024166  .00017151  00000+0  57293-2 0  9999
2 25984  45.0372 158.7198 0004646 187.7632 172.3145 14.37311349310489
ORBCOMM FM35            
1 25985U 99065F   25001.78645733  .00004110  00000+0  14374-2 0  9995
2 25985  45.0373 162.8059 0003578 262.6629  97.3813 14.36409487310854
ORBCOMM FM34            
1 25986U 99065G   25001.89610471  .00012276  00000+0  41872-2 0  9994
2 25986  45.0369 162.8136 0004733 219.6519 140.3984 14.36471985310984
ORBCOMM FM38            
1 33060U 08031A   25001.53996642  .00008053  00000+0  10795-2 0  9995
2 33060  48.4406  28.7156 0005465  31.9675 328.1571 14.79994922890055
ORBCOMM FM41            
1 33061U 08031B   25001.45834618  .00007125  00000+0  96681-3 0  9999
2 33061  48.4440  36.3385 0004829  15.4194 127.4737 14.79625616889535
ORBCOMM FM29            
1 33062U 08031C   25001.42648170  .00007651  00000+0  10351-2 0  9996
2 33062  48.4391  44.4634 0006526  16.5617 357.5796 14.79662575889442
ORBCOMM FM39            
1 33063U 08031D   25001.63730044  .00007168  00000+0  10010-2 0  9997
2 33063  48.4403  65.9975 0007645 352.7235   7.3567 14.78386967889147
